     2              NAVIGATION DATA                         RINEX VERSION / TYPE
CCRINEXN V1.6.0 UX  CDDIS               18-DEC-17 02:18     PGM / RUN BY / DATE 
IGS BROADCAST EPHEMERIS FILE                                COMMENT             
    0.8382D-08 -0.1490D-07 -0.5960D-07  0.1192D-06          ION ALPHA           
    0.9421D+05 -0.1311D+06 -0.1311D+06  0.8520D+06          ION BETA            
    0.000000000000D+00 0.266453525910D-14   319488     1980 DELTA-UTC: A0,A1,T,W
    18                                                      LEAP SECONDS        
                                                            END OF HEADER       
31 17 12 18  1 59 44.0 0.154775567353D-03-0.261479726760D-11 0.000000000000D+00
    0.110000000000D+02 0.985000000000D+02 0.414481560185D-08-0.273293280064D+01
    0.519305467606D-05 0.882120267488D-02 0.107605010271D-04 0.515358521652D+04
    0.935840000000D+05-0.150874257088D-06-0.298147766690D+01 0.372529029846D-07
    0.965338649544D+00 0.176437500000D+03-0.196824709808D+00-0.762424612333D-08
   -0.282154612174D-10 0.100000000000D+01 0.198000000000D+04 0.000000000000D+00
    0.200000000000D+01 0.000000000000D+00-0.135041773319D-07 0.110000000000D+02
    0.904500000000D+05 0.000000000000D+00 0.000000000000D+00 0.000000000000D+00
 1 17 12 18  2  0  0.0-0.175568275154D-04-0.261479726760D-11 0.000000000000D+00
    0.200000000000D+02-0.485937500000D+02 0.391230603469D-08-0.185746812538D+01
   -0.252015888691D-05 0.716795481276D-02 0.113639980555D-04 0.515368086433D+04
    0.936000000000D+05-0.111758708954D-07 0.134428588290D+00-0.141561031342D-06
    0.969920124221D+00 0.165531250000D+03 0.625532373100D+00-0.749281170442D-08
    0.353943319098D-09 0.100000000000D+01 0.198000000000D+04 0.000000000000D+00
    0.200000000000D+01 0.000000000000D+00 0.558793544769D-08 0.200000000000D+02
    0.929400000000D+05 0.000000000000D+00 0.000000000000D+00 0.000000000000D+00
 2 17 12 18  2  0  0.0 0.252560246736D-03-0.100044417195D-10 0.000000000000D+00
    0.110000000000D+02-0.587500000000D+02 0.449018688897D-08-0.143830576117D+01
   -0.289641320705D-05 0.174746129196D-01 0.111628323793D-04 0.515364563942D+04
    0.936000000000D+05 0.365078449249D-06 0.767307174224D-01 0.366941094399D-06
    0.948942888377D+00 0.156375000000D+03-0.192680369682D+01-0.780496822728D-08
    0.226438007234D-09 0.100000000000D+01 0.198000000000D+04 0.000000000000D+00
    0.200000000000D+01 0.000000000000D+00-0.204890966415D-07 0.110000000000D+02
    0.864300000000D+05 0.000000000000D+00 0.000000000000D+00 0.000000000000D+00
 4 17 12 18  2  0  0.0 0.274060294032D-04 0.193267624127D-11 0.000000000000D+00
    0.600000000000D+01 0.748437500000D+02 0.567130766130D-08 0.155643228528D+01
    0.385195016861D-05 0.926276273094D-02 0.189803540707D-05 0.515366028786D+04
    0.936000000000D+05-0.240281224251D-06-0.193798154519D+01 0.726431608200D-07
    0.980316878202D+00 0.354156250000D+03 0.894380633195D+00-0.827855912093D-08
    0.186436337250D-09 0.100000000000D+01 0.198000000000D+04 0.000000000000D+00
    0.200000000000D+01 0.630000000000D+02-0.195577740669D-07 0.600000000000D+01
    0.864000000000D+05 0.400000000000D+01 0.000000000000D+00 0.000000000000D+00
 5 17 12 18  2  0  0.0-0.194823369384D-04 0.113686837722D-11 0.000000000000D+00
    0.250000000000D+02 0.191562500000D+02 0.510806991447D-08 0.109032145960D+01
    0.113993883133D-05 0.528524583206D-02 0.587850809097D-05 0.515360026550D+04
    0.936000000000D+05-0.596046447754D-07 0.115726557399D+01 0.186264514923D-07
    0.946949899487D+00 0.259906250000D+03 0.633842416344D+00-0.825570102594D-08
    0.350371737246D-09 0.100000000000D+01 0.198000000000D+04 0.000000000000D+00
    0.200000000000D+01 0.000000000000D+00-0.107102096081D-07 0.250000000000D+02
    0.864000000000D+05 0.400000000000D+01 0.000000000000D+00 0.000000000000D+00
 6 17 12 18  2  0  0.0 0.413428060710D-03 0.909494701773D-12 0.000000000000D+00
    0.620000000000D+02-0.595312500000D+02 0.403731102735D-08-0.157473372546D+01
   -0.307522714138D-05 0.760644441471D-03 0.116266310215D-04 0.515380850029D+04
    0.936000000000D+05 0.167638063431D-07 0.126096775362D+00 0.447034835815D-07
    0.969665049824D+00 0.161031250000D+03-0.130491880128D+01-0.765424740156D-08
    0.312870175156D-09 0.100000000000D+01 0.198000000000D+04 0.000000000000D+00
    0.200000000000D+01 0.000000000000D+00 0.465661287308D-08 0.620000000000D+02
    0.864000000000D+05 0.400000000000D+01 0.000000000000D+00 0.000000000000D+00
 7 17 12 18  2  0  0.0 0.264446716756D-03-0.534328137292D-11 0.000000000000D+00
    0.320000000000D+02 0.106656250000D+03 0.420517516242D-08-0.252243947229D+01
    0.528991222382D-05 0.110811337363D-01 0.104680657387D-04 0.515371427536D+04
    0.936000000000D+05 0.614672899246D-07-0.299329316469D+01-0.189989805222D-06
    0.960638817480D+00 0.179093750000D+03-0.254516257651D+01-0.765567603249D-08
    0.382158775590D-10 0.100000000000D+01 0.198000000000D+04 0.000000000000D+00
    0.200000000000D+01 0.000000000000D+00-0.111758708954D-07 0.320000000000D+02
    0.864000000000D+05 0.400000000000D+01 0.000000000000D+00 0.000000000000D+00
 8 17 12 18  2  0  0.0-0.844914466143D-04-0.136424205266D-11 0.000000000000D+00
    0.930000000000D+02-0.117031250000D+03 0.438089697852D-08 0.826917968475D+00
   -0.624544918537D-05 0.303238502238D-02 0.397861003876D-05 0.515373648262D+04
    0.936000000000D+05 0.149011611938D-07-0.929248994493D+00-0.260770320892D-07
    0.968275387368D+00 0.304156250000D+03-0.620042733509D+00-0.816284018157D-08
   -0.379301506870D-09 0.100000000000D+01 0.198000000000D+04 0.000000000000D+00
    0.280000000000D+01 0.000000000000D+00 0.558793544769D-08 0.930000000000D+02
    0.864300000000D+05 0.000000000000D+00 0.000000000000D+00 0.000000000000D+00
 9 17 12 18  2  0  0.0 0.484254676849D-03 0.397903932026D-11 0.000000000000D+00
    0.830000000000D+02-0.177187500000D+02 0.480805750769D-08 0.604187185564D+00
   -0.101514160633D-05 0.111181195825D-02 0.751391053200D-05 0.515371241570D+04
    0.936000000000D+05 0.558793544769D-08 0.221211116338D+01 0.223517417908D-07
    0.952791983839D+00 0.228062500000D+03 0.172455480130D+01-0.806105049378D-08
   -0.481805761954D-09 0.100000000000D+01 0.198000000000D+04 0.000000000000D+00
    0.200000000000D+01 0.000000000000D+00 0.931322574616D-09 0.830000000000D+02
    0.887400000000D+05 0.000000000000D+00 0.000000000000D+00 0.000000000000D+00
10 17 12 18  2  0  0.0 0.131274573505D-03 0.659383658785D-11 0.000000000000D+00
    0.460000000000D+02 0.231250000000D+02 0.479377110838D-08 0.244537934521D+01
    0.126287341118D-05 0.306493032258D-02 0.577978789806D-05 0.515366159821D+04
    0.936000000000D+05-0.117346644402D-06 0.117333369417D+01-0.745058059692D-08
    0.960146130077D+00 0.266750000000D+03-0.288743049643D+01-0.807390773924D-08
    0.438589697593D-09 0.100000000000D+01 0.198000000000D+04 0.000000000000D+00
    0.200000000000D+01 0.000000000000D+00 0.186264514923D-08 0.460000000000D+02
    0.873600000000D+05 0.400000000000D+01 0.000000000000D+00 0.000000000000D+00
11 17 12 18  2  0  0.0-0.730998348445D-03-0.136424205266D-11 0.000000000000D+00
    0.720000000000D+02-0.102625000000D+03 0.530557819900D-08-0.252182427720D+01
   -0.519677996635D-05 0.168215509038D-01 0.961311161518D-05 0.515375286674D+04
    0.936000000000D+05 0.189989805222D-06-0.281589382722D+00 0.106170773506D-06
    0.903779628769D+00 0.159406250000D+03 0.172705583239D+01-0.805069255705D-08
   -0.571452390616D-11 0.100000000000D+01 0.198000000000D+04 0.000000000000D+00
    0.200000000000D+01 0.000000000000D+00-0.121071934700D-07 0.720000000000D+02
    0.906300000000D+05 0.000000000000D+00 0.000000000000D+00 0.000000000000D+00
13 17 12 18  2  0  0.0-0.948323868215D-04-0.227373675443D-12 0.000000000000D+00
    0.130000000000D+02-0.156562500000D+02 0.442911306177D-08-0.115363420902D+01
   -0.780448317528D-06 0.367315020412D-02 0.842846930027D-05 0.515365613174D+04
    0.936000000000D+05-0.279396772385D-07 0.234138965683D+01 0.931322574616D-08
    0.968795134366D+00 0.222343750000D+03 0.165258392485D+01-0.785961309872D-08
   -0.546094175586D-09 0.100000000000D+01 0.198000000000D+04 0.000000000000D+00
    0.200000000000D+01 0.000000000000D+00-0.116415321827D-07 0.130000000000D+02
    0.864000000000D+05 0.000000000000D+00 0.000000000000D+00 0.000000000000D+00
14 17 12 18  2  0  0.0-0.907755456865D-04-0.682121026330D-12 0.000000000000D+00
    0.180000000000D+02-0.226562500000D+02 0.467305172336D-08 0.130038466224D-01
   -0.122562050819D-05 0.924581103027D-02 0.820495188236D-05 0.515371919823D+04
    0.936000000000D+05-0.130385160446D-06 0.230057204511D+01 0.102445483208D-06
    0.961288891461D+00 0.224375000000D+03-0.195271970899D+01-0.812212430645D-08
   -0.503235231264D-09 0.100000000000D+01 0.198000000000D+04 0.000000000000D+00
    0.200000000000D+01 0.000000000000D+00-0.977888703346D-08 0.180000000000D+02
    0.864300000000D+05 0.000000000000D+00 0.000000000000D+00 0.000000000000D+00
15 17 12 18  2  0  0.0-0.357407145202D-03 0.000000000000D+00 0.000000000000D+00
    0.100000000000D+03-0.260000000000D+02 0.554630245433D-08-0.511906667150D+00
   -0.119768083096D-05 0.100655006245D-01 0.653974711895D-05 0.515365382195D+04
    0.936000000000D+05 0.987201929092D-07 0.214541119831D+01 0.109896063805D-06
    0.928304484842D+00 0.234312500000D+03 0.649136347112D+00-0.856642825469D-08
   -0.452161691492D-09 0.100000000000D+01 0.198000000000D+04 0.000000000000D+00
    0.200000000000D+01 0.000000000000D+00-0.107102096081D-07 0.100000000000D+03
    0.864000000000D+05 0.400000000000D+01 0.000000000000D+00 0.000000000000D+00
